IRIDIUM 159             
1 43578U 18061K   24247.28919382  .00000072  00000+0  18659-4 0  9995
2 43578  86.4010 329.1512 0002239  96.1190 264.0261 14.34215209319941
IRIDIUM 180             
1 43922U 19002A   24247.42821873  .00000430  00000+0  14641-3 0  9991
2 43922  86.3910 265.9411 0002467  91.4920 268.6558 14.34223693295576
IRIDIUM 176             
1 43923U 19002B   24248.57206061  .00001391  00000+0  21662-3 0  9993
2 43923  86.6039 265.4778 0002536  92.0684 268.0823 14.72250073303522
IRIDIUM 168             
1 43924U 19002C   24248.60795068  .00000015  00000+0 -15973-5 0  9991
2 43924  86.3914 265.5062 0002263  92.4087 267.7368 14.34217597295721
IRIDIUM 173             
1 43925U 19002D   24248.59526486  .00000016  00000+0 -13241-5 0  9993
2 43925  86.3909 265.4271 0002290  89.8298 270.3160 14.34217313295705
IRIDIUM 169             
1 43926U 19002E   24248.55802153  .00001289  00000+0  41475-3 0  9998
2 43926  86.4203 297.0915 0002104  39.8754 320.2599 14.38615317296685
IRIDIUM 172             
1 43927U 19002F   24248.10054051  .00000059  00000+0  13825-4 0  9999
2 43927  86.3908 265.6403 0002218  92.2755 267.8694 14.34220872295641
IRIDIUM 175             
1 43928U 19002G   24248.36267060  .00001737  00000+0  27134-3 0  9995
2 43928  86.1483 234.2358 0002362  86.7825 273.3662 14.72277877303483
